{
  "norad_id": 58809,
  "name": "STARLINK-31169",
  "history": [
    {
      "epoch": "2026-04-15T21:16:07.946976Z",
      "apogee_km": 484.5688602822529,
      "perigee_km": 481.56365325578827,
      "latitude_deg": -1.5065477833818455e-06,
      "longitude_deg": 152.1899490177297,
      "height_km": 482.1058020952275,
      "semi_major_axis_km": 6861.20325676902,
      "eccentricity": 0.000219,
      "inclination_deg": 43.0076,
      "raan_deg": 315.2649,
      "arg_perigee_deg": 299.4384,
      "mean_anomaly_deg": 60.6249,
      "mean_motion_rev_day": 15.27574269
    },
    {
      "epoch": "2026-04-16T14:31:50.550816Z",
      "apogee_km": 483.889247848022,
      "perigee_km": 482.0916324587015,
      "latitude_deg": 3.155560569662027e-05,
      "longitude_deg": -111.5076487096708,
      "height_km": 482.4789114561693,
      "semi_major_axis_km": 6861.127440153361,
      "eccentricity": 0.000131,
      "inclination_deg": 43.0084,
      "raan_deg": 311.2037,
      "arg_perigee_deg": 288.7605,
      "mean_anomaly_deg": 71.3105,
      "mean_motion_rev_day": 15.27599589
    },
    {
      "epoch": "2026-04-17T20:20:49.507872Z",
      "apogee_km": 483.836697286677,
      "perigee_km": 482.2937501306087,
      "latitude_deg": 3.066320173681093e-05,
      "longitude_deg": 153.00658258051368,
      "height_km": 482.7586074025002,
      "semi_major_axis_km": 6861.202223708642,
      "eccentricity": 0.00011244,
      "inclination_deg": 43.0041,
      "raan_deg": 304.1881,
      "arg_perigee_deg": 276.2169,
      "mean_anomaly_deg": 83.8555,
      "mean_motion_rev_day": 15.27574614
    },
    {
      "epoch": "2026-04-18T19:53:09.375072Z",
      "apogee_km": 483.7947247588072,
      "perigee_km": 482.25233587159255,
      "latitude_deg": -2.087273906921444e-05,
      "longitude_deg": 153.41604149747275,
      "height_km": 482.578425550089,
      "semi_major_axis_km": 6861.1605303152,
      "eccentricity": 0.0001124,
      "inclination_deg": 43.0056,
      "raan_deg": 298.6471,
      "arg_perigee_deg": 286.7448,
      "mean_anomaly_deg": 73.328,
      "mean_motion_rev_day": 15.27588538
    },
    {
      "epoch": "2026-04-19T13:08:53.583360Z",
      "apogee_km": 484.28202024714756,
      "perigee_km": 481.8065060474037,
      "latitude_deg": 7.791741283374489e-06,
      "longitude_deg": -110.2892664803571,
      "height_km": 482.4396877687155,
      "semi_major_axis_km": 6861.181263147275,
      "eccentricity": 0.0001804,
      "inclination_deg": 43.0008,
      "raan_deg": 294.5849,
      "arg_perigee_deg": 287.9604,
      "mean_anomaly_deg": 72.1051,
      "mean_motion_rev_day": 15.27581614
    },
    {
      "epoch": "2026-04-20T04:50:27.553920Z",
      "apogee_km": 484.2943966071671,
      "perigee_km": 481.81201799016617,
      "latitude_deg": 2.2493064007215164e-05,
      "longitude_deg": 9.98272503531477,
      "height_km": 482.4603962410923,
      "semi_major_axis_km": 6861.190207298667,
      "eccentricity": 0.0001809,
      "inclination_deg": 43.0013,
      "raan_deg": 290.8929,
      "arg_perigee_deg": 287.3422,
      "mean_anomaly_deg": 72.7232,
      "mean_motion_rev_day": 15.27578627
    },
    {
      "epoch": "2026-04-21T20:04:20.862048Z",
      "apogee_km": 483.8871168849146,
      "perigee_km": 482.17182526714623,
      "latitude_deg": 3.856181201434099e-05,
      "longitude_deg": 130.66834160931063,
      "height_km": 482.57937431310484,
      "semi_major_axis_km": 6861.166471076031,
      "eccentricity": 0.000125,
      "inclination_deg": 43.0015,
      "raan_deg": 281.6618,
      "arg_perigee_deg": 285.336,
      "mean_anomaly_deg": 74.7354,
      "mean_motion_rev_day": 15.27586554
    },
    {
      "epoch": "2026-04-22T18:02:35.075040Z",
      "apogee_km": 483.9869914906931,
      "perigee_km": 482.20993150616596,
      "latitude_deg": -1.9089311397409618e-05,
      "longitude_deg": 155.03665599322164,
      "height_km": 482.669418896541,
      "semi_major_axis_km": 6861.23546149843,
      "eccentricity": 0.0001295,
      "inclination_deg": 43.0047,
      "raan_deg": 276.4917,
      "arg_perigee_deg": 283.4178,
      "mean_anomaly_deg": 76.6529,
      "mean_motion_rev_day": 15.27563514
    },
    {
      "epoch": "2026-04-23T03:27:31.722624Z",
      "apogee_km": 483.9638614597998,
      "perigee_km": 482.24292514435183,
      "latitude_deg": 2.872270308143369e-05,
      "longitude_deg": 11.198084002659705,
      "height_km": 482.71445691545114,
      "semi_major_axis_km": 6861.240393302075,
      "eccentricity": 0.00012541,
      "inclination_deg": 43.0026,
      "raan_deg": 274.2758,
      "arg_perigee_deg": 281.1101,
      "mean_anomaly_deg": 78.961,
      "mean_motion_rev_day": 15.27561867
    },
    {
      "epoch": "2026-04-24T10:50:38.283072Z",
      "apogee_km": 484.4656242289848,
      "perigee_km": 481.6689973519069,
      "latitude_deg": 2.5903568875817637e-05,
      "longitude_deg": -108.25649867355271,
      "height_km": 482.6372645877496,
      "semi_major_axis_km": 6861.204310790446,
      "eccentricity": 0.0002038,
      "inclination_deg": 43.0014,
      "raan_deg": 266.8875,
      "arg_perigee_deg": 278.5303,
      "mean_anomaly_deg": 81.5318,
      "mean_motion_rev_day": 15.27573917
    },
    {
      "epoch": "2026-04-25T16:39:35.326368Z",
      "apogee_km": 483.950847123574,
      "perigee_km": 482.09833349419114,
      "latitude_deg": -6.065091204195136e-05,
      "longitude_deg": 156.26843482653607,
      "height_km": 482.7924556534181,
      "semi_major_axis_km": 6861.161590308882,
      "eccentricity": 0.000135,
      "inclination_deg": 42.9987,
      "raan_deg": 259.8747,
      "arg_perigee_deg": 270.5355,
      "mean_anomaly_deg": 89.5341,
      "mean_motion_rev_day": 15.27588184
    },
    {
      "epoch": "2026-04-26T19:20:14.780832Z",
      "apogee_km": 483.4945375291327,
      "perigee_km": 482.54495343555845,
      "latitude_deg": -4.2281347455655905e-05,
      "longitude_deg": 108.73245007023206,
      "height_km": 482.8377008926954,
      "semi_major_axis_km": 6861.156745482345,
      "eccentricity": 6.92e-05,
      "inclination_deg": 42.9998,
      "raan_deg": 253.5987,
      "arg_perigee_deg": 264.937,
      "mean_anomaly_deg": 95.1402,
      "mean_motion_rev_day": 15.27589802
    },
    {
      "epoch": "2026-04-27T18:52:36.172992Z",
      "apogee_km": 484.1191571316276,
      "perigee_km": 481.98944335203214,
      "latitude_deg": 2.5009666501025547e-05,
      "longitude_deg": 109.13456488809557,
      "height_km": 482.6759659223195,
      "semi_major_axis_km": 6861.19130024183,
      "eccentricity": 0.0001552,
      "inclination_deg": 43.001,
      "raan_deg": 248.0566,
      "arg_perigee_deg": 278.3848,
      "mean_anomaly_deg": 81.6828,
      "mean_motion_rev_day": 15.27578262
    }
  ]
}